STARLINK-30589          
1 58103U 23161G   26068.46817257 -.00001730  00000+0 -46309-4 0  9990
2 58103  53.1598 166.6492 0001235 109.2061 250.9073 15.30192530134388
TEVEL2-4                
1 63213U 25052D   26068.69417973  .00020990  00000+0  70363-3 0  9998
2 63213  97.4009 325.1237 0004733  95.3468 264.8313 15.30925813 54879
